*******************************************************************************
JPL/HORIZONS              4171 Carrasco (1982 FZ1)         2023-Sep-04 11:27:42
Rec #:    4171 (+COV) Soln.date: 2023-Aug-23_16:36:59   # obs: 3956 (1982-2023)
 
IAU76/J2000 helio. ecliptic osc. elements (au, days, deg., period=Julian yrs):
 
  EPOCH=  2457911.5 ! 2017-Jun-07.00 (TDB)         Residual RMS= .23874
   EC= .07945860360119886  QR= 2.065040275353536   TP= 2457430.7711500097
   OM= 185.1890942033842   W=  29.52624646598633   IN= 4.033890347008178
   A= 2.243288876993545    MA= 141.0186184743558   ADIST= 2.421537478633553
   PER= 3.35997            N= .293343365           ANGMOM= .025683174
   DAN= 2.08497            DDN= 2.39469            L= 214.6544358
   B= 1.9867469            MOID= 1.05989003        TP= 2016-Feb-12.2711500097
 
Asteroid physical parameters (km, seconds, rotational period in hours):
   GM= n.a.                RAD= 2.47               ROTPER= 33.53
   H= 13.69                G= .150                 B-V= n.a.
                           ALBEDO= .501            STYP= n.a.

ASTEROID comments: 
1: soln ref.= JPL#50, OCC=0
2: source=ORB
*******************************************************************************


*******************************************************************************
Ephemeris / API_USER Mon Sep  4 11:27:42 2023 Pasadena, USA      / Horizons
*******************************************************************************
Target body name: 4171 Carrasco (1982 FZ1)        {source: JPL#50}
Center body name: Solar System Barycenter (0)     {source: DE441}
Center-site name: BODY CENTER
*******************************************************************************
Start time      : A.D. 2023-Aug-12 00:00:00.0000 TDB
Stop  time      : A.D. 2023-Aug-13 00:00:00.0000 TDB
Step-size       : 2880 minutes
*******************************************************************************
Center geodetic : 0.0, 0.0, 0.0                   {E-lon(deg),Lat(deg),Alt(km)}
Center cylindric: 0.0, 0.0, 0.0                   {E-lon(deg),Dxy(km),Dz(km)}
Center radii    : (undefined)
Small perturbers: Yes                             {source: SB441-N16}
Output units    : KM-S
Calendar mode   : Mixed Julian/Gregorian
Output type     : GEOMETRIC cartesian states
Output format   : 2 (position and velocity)
Reference frame : Ecliptic of J2000.0
*******************************************************************************
Initial IAU76/J2000 heliocentric ecliptic osculating elements (au, days, deg.):
  EPOCH=  2457911.5 ! 2017-Jun-07.00 (TDB)         Residual RMS= .23874        
   EC= .07945860360119886  QR= 2.065040275353536   TP= 2457430.7711500097      
   OM= 185.1890942033842   W=  29.52624646598633   IN= 4.033890347008178       
  Equivalent ICRF heliocentric cartesian coordinates (au, au/d):
   X= 2.386534508177071E+00  Y= 3.541327088193369E-02  Z= 2.858664701182811E-02
  VX= 3.141068785349763E-04 VY= 1.015377144309228E-02 VZ= 3.582185189989811E-03
Asteroid physical parameters (km, seconds, rotational period in hours):        
   GM= n.a.                RAD= 2.47               ROTPER= 33.53               
   H= 13.69                G= .150                 B-V= n.a.                   
                           ALBEDO= .501            STYP= n.a.                  
*******************************************************************************
JDTDB
   X     Y     Z
   VX    VY    VZ
*******************************************************************************
$$SOE
2460168.500000000 = A.D. 2023-Aug-12 00:00:00.0000 TDB 
 X = 2.001363384186483E+08 Y =-2.668059938402182E+08 Z = 2.002718544011174E+07
 VX= 1.683435895039433E+01 VY= 1.065860969971203E+01 VZ=-6.437446101666797E-01
$$EOE
*******************************************************************************
 
TIME

  Barycentric Dynamical Time ("TDB" or T_eph) output was requested. This
continuous coordinate time is equivalent to the relativistic proper time
of a clock at rest in a reference frame co-moving with the solar system
barycenter but outside the system's gravity well. It is the independent
variable in the solar system relativistic equations of motion.

  TDB runs at a uniform rate of one SI second per second and is independent
of irregularities in Earth's rotation.
 
CALENDAR SYSTEM

  Mixed calendar mode was active such that calendar dates after AD 1582-Oct-15
(if any) are in the modern Gregorian system. Dates prior to 1582-Oct-5 (if any)
are in the Julian calendar system, which is automatically extended for dates
prior to its adoption on 45-Jan-1 BC.  The Julian calendar is useful for
matching historical dates. The Gregorian calendar more accurately corresponds
to the Earth's orbital motion and seasons. A "Gregorian-only" calendar mode is
available if such physical events are the primary interest.

REFERENCE FRAME AND COORDINATES

  Ecliptic at the standard reference epoch

    Reference epoch: J2000.0
    X-Y plane: adopted Earth orbital plane at the reference epoch
               Note: IAU76 obliquity of 84381.448 arcseconds wrt ICRF X-Y plane
    X-axis   : ICRF
    Z-axis   : perpendicular to the X-Y plane in the directional (+ or -) sense
               of Earth's north pole at the reference epoch.

  Symbol meaning:

    JDTDB    Julian Day Number, Barycentric Dynamical Time
      X      X-component of position vector (km)
      Y      Y-component of position vector (km)
      Z      Z-component of position vector (km)
      VX     X-component of velocity vector (km/sec)                           
      VY     Y-component of velocity vector (km/sec)                           
      VZ     Z-component of velocity vector (km/sec)                           

ABERRATIONS AND CORRECTIONS

 Geometric state vectors have NO corrections or aberrations applied.

Computations by ...

    Solar System Dynamics Group, Horizons On-Line Ephemeris System
    4800 Oak Grove Drive, Jet Propulsion Laboratory
    Pasadena, CA  91109   USA

    General site: https://ssd.jpl.nasa.gov/
    Mailing list: https://ssd.jpl.nasa.gov/email_list.html
    System news : https://ssd.jpl.nasa.gov/horizons/news.html
    User Guide  : https://ssd.jpl.nasa.gov/horizons/manual.html
    Connect     : browser        https://ssd.jpl.nasa.gov/horizons/app.html#/x
                  API            https://ssd-api.jpl.nasa.gov/doc/horizons.html
                  command-line   telnet ssd.jpl.nasa.gov 6775
                  e-mail/batch   https://ssd.jpl.nasa.gov/ftp/ssd/hrzn_batch.txt
                  scripts        https://ssd.jpl.nasa.gov/ftp/ssd/SCRIPTS
    Author      : Jon.D.Giorgini@jpl.nasa.gov
*******************************************************************************
